NORAD_CAT_ID,OBJECT_NAME,OBJECT_TYPE,EPOCH,MEAN_MOTION,ECCENTRICITY,INCLINATION,RA_OF_ASC_NODE,ARG_OF_PERICENTER,MEAN_ANOMALY,BSTAR,MEAN_MOTION_DOT,MEAN_MOTION_DDOT,TLE_LINE0,TLE_LINE1,TLE_LINE2,SEMIMAJOR_AXIS,PERIOD,APOGEE,PERIGEE,DECAYED
56771.0,STARLINK-6339,PAYLOAD,2024-01-09 18:13:33,15.69918071,0.0002593,69.9988,144.972,266.7775,93.3124,-1.7896e-06,-4.27e-06,0.0,0 STARLINK-6339,1 56771U 23078E   24009.75941084 -.00000427  00000-0 -17896-5 0  9990,2 56771  69.9988 144.9720 0002593 266.7775  93.3124 15.69918071 35123,6737.268,91.725,360.88,357.386,0.0
56771.0,STARLINK-6339,PAYLOAD,2024-01-10 11:02:49,15.69920444,0.000323,69.9977,143.0003,268.5417,91.5409,-9.4693e-07,-3.27e-06,0.0,0 STARLINK-6339,1 56771U 23078E   24010.46029364 -.00000327  00000-0 -94693-6 0  9998,2 56771  69.9977 143.0003 0003230 268.5417  91.5409 15.69920444 35490,6737.262,91.724,361.303,356.95,0.0
56771.0,STARLINK-6339,PAYLOAD,2024-01-10 18:41:34,15.69928079,0.0003257,69.9987,142.1032,283.044,77.0392,7.4136e-06,6.79e-06,0.0,0 STARLINK-6339,1 56771U 23078E   24010.77887188  .00000679  00000-0  74136-5 0  9995,2 56771  69.9987 142.1032 0003257 283.0440  77.0392 15.69928079 35548,6737.24,91.724,361.299,356.91,0.0
56771.0,STARLINK-6339,PAYLOAD,2024-01-11 11:30:51,15.69926296,0.0002643,69.9988,140.1341,266.6488,93.4406,3.1624e-07,-1.74e-06,0.0,0 STARLINK-6339,1 56771U 23078E   24011.47975746 -.00000174  00000-0  31624-6 0  9998,2 56771  69.9988 140.1341 0002643 266.6488  93.4406 15.69926296 35397,6737.245,91.724,360.891,357.329,0.0
56771.0,STARLINK-6339,PAYLOAD,2024-01-11 17:37:51,15.6993049,0.0002773,69.9992,139.4191,268.6929,91.3949,-4.9975e-06,-8.13e-06,0.0,0 STARLINK-6339,1 56771U 23078E   24011.73462280 -.00000813  00000-0 -49975-5 0  9999,2 56771  69.9992 139.4191 0002773 268.6929  91.3949 15.69930490 35437,6737.233,91.724,360.966,357.23,0.0
56771.0,STARLINK-6339,PAYLOAD,2024-01-12 10:27:08,15.6991988,0.0002851,69.999,137.4491,272.4218,87.6651,1.1138e-05,1.127e-05,0.0,0 STARLINK-6339,1 56771U 23078E   24012.43551081  .00001127  00000-0  11138-4 0  9991,2 56771  69.9990 137.4491 0002851 272.4218  87.6651 15.69919880 35806,6737.263,91.724,361.049,357.207,0.0
56771.0,STARLINK-6339,PAYLOAD,2024-01-12 18:05:52,15.69941824,0.0003115,69.9998,136.5537,271.6962,88.3877,3.1867e-05,3.623e-05,0.0,0 STARLINK-6339,1 56771U 23078E   24012.75407824  .00003623  00000-0  31867-4 0  9995,2 56771  69.9998 136.5537 0003115 271.6962  88.3877 15.69941824 35852,6737.2,91.723,361.164,356.967,0.0
56771.0,STARLINK-6339,PAYLOAD,2024-01-13 10:55:10,15.69897719,0.0003826,69.9989,134.5844,276.8466,83.2295,-3.198e-05,-4.053e-05,0.0,0 STARLINK-6339,1 56771U 23078E   24013.45498675 -.00004053  00000-0 -31980-4 0  9993,2 56771  69.9989 134.5844 0003826 276.8466  83.2295 15.69897719 35969,6737.327,91.726,361.769,356.614,0.0
56771.0,STARLINK-6339,PAYLOAD,2024-01-13 17:02:11,15.69901349,0.000317,69.999,133.8667,265.0838,94.9995,-2.5524e-05,-3.277e-05,0.0,0 STARLINK-6339,1 56771U 23078E   24013.70985174 -.00003277  00000-0 -25524-4 0  9990,2 56771  69.9990 133.8667 0003170 265.0838  94.9995 15.69901349 36008,6737.316,91.726,361.317,357.046,0.0
56771.0,STARLINK-6339,PAYLOAD,2024-01-14 11:23:12,15.69906446,0.0003402,69.9982,131.7178,270.3249,89.7556,-3.263e-06,-6.05e-06,0.0,0 STARLINK-6339,1 56771U 23078E   24014.47445040 -.00000605  00000-0 -32630-5 0  9997,2 56771  69.9982 131.7178 0003402 270.3249  89.7556 15.69906446 36127,6737.302,91.725,361.459,356.875,0.0
56771.0,STARLINK-6339,PAYLOAD,2024-01-14 17:30:12,15.6991521,0.0003728,69.9982,131.0014,271.4266,88.6503,4.6634e-06,3.48e-06,0.0,0 STARLINK-6339,1 56771U 23078E   24014.72931198  .00000348  00000-0  46634-5 0  9990,2 56771  69.9982 131.0014 0003728 271.4266  88.6503 15.69915210 36164,6737.277,91.725,361.653,356.63,0.0
56771.0,STARLINK-6339,PAYLOAD,2024-01-15 10:19:28,15.69902223,0.0004478,69.9969,129.0296,279.0241,81.0447,2.8227e-05,3.18e-05,0.0,0 STARLINK-6339,1 56771U 23078E   24015.43019635  .00003180  00000-0  28227-4 0  9996,2 56771  69.9969 129.0296 0004478 279.0241  81.0447 15.69902223 36016,6737.314,91.725,362.196,356.162,0.0
56771.0,STARLINK-6339,PAYLOAD,2024-01-15 16:26:30,15.69896631,0.0003505,69.9998,128.3176,264.2606,95.819,3.1289e-05,3.547e-05,0.0,0 STARLINK-6339,1 56771U 23078E   24015.68507029  .00003547  00000-0  31289-4 0  9991,2 56771  69.9998 128.3176 0003505 264.2606  95.8190 15.69896631 36314,6737.33,91.726,361.556,356.833,0.0
56771.0,STARLINK-6339,PAYLOAD,2024-01-16 10:47:29,15.69950555,0.0002517,69.9998,126.1645,271.0333,89.0575,6.3537e-05,7.442e-05,0.0,0 STARLINK-6339,1 56771U 23078E   24016.44964639  .00007442  00000-0  63537-4 0  9999,2 56771  69.9998 126.1645 0002517 271.0333  89.0575 15.69950555 36437,6737.175,91.723,360.736,357.345,0.0
56771.0,STARLINK-6339,PAYLOAD,2024-01-16 16:54:31,15.69941283,0.0002431,70.0,125.4472,287.094,72.999,6.3872e-05,7.479e-05,0.0,0 STARLINK-6339,1 56771U 23078E   24016.70452831  .00007479  00000-0  63872-4 0  9996,2 56771  70.0000 125.4472 0002431 287.0940  72.9990 15.69941283 36474,6737.202,91.723,360.705,357.429,0.0
56771.0,STARLINK-6339,PAYLOAD,2024-01-17 09:43:48,15.69909334,0.000215,70.0,123.4764,262.4204,97.6748,2.9859e-05,3.377e-05,0.0,0 STARLINK-6339,1 56771U 23078E   24017.40542644  .00003377  00000-0  29859-4 0  9996,2 56771  70.0000 123.4764 0002150 262.4204  97.6748 15.69909334 36582,6737.293,91.725,360.607,357.71,0.0
56771.0,STARLINK-6339,PAYLOAD,2024-01-17 15:50:48,15.6991951,0.0002128,69.9995,122.7602,258.3011,101.7946,3.5404e-05,4.045e-05,0.0,0 STARLINK-6339,1 56771U 23078E   24017.66028783  .00004045  00000-0  35404-4 0  9993,2 56771  69.9995 122.7602 0002128 258.3011 101.7946 15.69919510 36629,6737.264,91.724,360.563,357.696,0.0
56771.0,STARLINK-6339,PAYLOAD,2024-01-18 10:11:49,15.69940483,0.0001925,70.0002,120.6095,252.0877,108.0109,-2.6339e-05,-3.379e-05,0.0,0 STARLINK-6339,1 56771U 23078E   24018.42487902 -.00003379  00000-0 -26339-4 0  9998,2 56771  70.0002 120.6095 0001925 252.0877 108.0109 15.69940483 36746,6737.204,91.723,360.366,357.772,0.0
56771.0,STARLINK-6339,PAYLOAD,2024-01-18 14:47:05,15.6993764,0.0002088,69.9995,120.0732,264.7568,95.339,-2.8791e-05,-3.674e-05,0.0,0 STARLINK-6339,1 56771U 23078E   24018.61603781 -.00003674  00000-0 -28791-4 0  9996,2 56771  69.9995 120.0732 0002088 264.7568  95.3390 15.69937640 36510,6737.212,91.723,360.484,357.671,0.0
56771.0,STARLINK-6339,PAYLOAD,2024-01-19 09:08:06,15.69930415,0.0002961,69.9978,117.92,280.9415,79.1448,1.1493e-05,1.17e-05,0.0,0 STARLINK-6339,1 56771U 23078E   24019.38063392  .00001170  00000-0  11493-4 0  9997,2 56771  69.9978 117.9200 0002961 280.9415  79.1448 15.69930415 36637,6737.233,91.724,361.093,357.103,0.0
56771.0,STARLINK-6339,PAYLOAD,2024-01-19 16:46:52,15.69927,0.0003127,69.9975,117.0241,282.3385,77.746,5.1978e-06,4.12e-06,0.0,0 STARLINK-6339,1 56771U 23078E   24019.69921976  .00000412  00000-0  51978-5 0  9993,2 56771  69.9975 117.0241 0003127 282.3385  77.7460 15.69927000 36945,6737.243,91.724,361.215,357.001,0.0
56771.0,STARLINK-6339,PAYLOAD,2024-01-20 14:11:24,15.6992188,0.000308,69.9976,114.5162,273.6961,86.3883,1.804e-06,4e-08,0.0,0 STARLINK-6339,1 56771U 23078E   24020.59125637  .00000004  00000-0  18040-5 0  9994,2 56771  69.9976 114.5162 0003080 273.6961  86.3883 15.69921880 36823,6737.257,91.724,361.198,357.047,0.0
56771.0,STARLINK-6339,PAYLOAD,2024-01-20 15:43:09,15.69926902,0.0002505,69.9983,114.3376,261.1012,98.99,-1.3527e-06,-3.75e-06,0.0,0 STARLINK-6339,1 56771U 23078E   24020.65497017 -.00000375  00000-0 -13527-5 0  9993,2 56771  69.9983 114.3376 0002505 261.1012  98.9900 15.69926902 36836,6737.243,91.724,360.796,357.42,0.0
56771.0,STARLINK-6339,PAYLOAD,2024-01-21 06:59:56,15.70611023,0.0008468,69.998,112.5446,248.981,111.0481,0.00078376,0.00098045,0.0,0 STARLINK-6339,1 56771U 23078E   24021.29162701  .00098045  00000-0  78376-3 0  9993,2 56771  69.9980 112.5446 0008468 248.9810 111.0481 15.70611023 36933,6735.287,91.684,362.855,351.448,0.0
56771.0,STARLINK-6339,PAYLOAD,2024-01-21 10:05:07,15.69247372,0.0002786,69.998,112.1905,258.7498,101.3385,-0.00071576,-0.00083071,0.0,0 STARLINK-6339,1 56771U 23078E   24021.42022268 -.00083071  00000-0 -71576-3 0  9991,2 56771  69.9980 112.1905 0002786 258.7498 101.3385 15.69247372 37214,6739.188,91.764,362.93,359.175,0.0
56771.0,STARLINK-6339,PAYLOAD,2024-01-21 14:40:50,15.68941003,0.000298,69.9982,111.654,274.1607,85.9248,-0.0010345,-0.00117986,0.0,0 STARLINK-6339,1 56771U 23078E   24021.61169701 -.00117986  00000-0 -10345-2 0  9995,2 56771  69.9982 111.6540 0002980 274.1607  85.9248 15.68941003 37244,6740.065,91.782,363.939,359.922,0.0
56771.0,STARLINK-6339,PAYLOAD,2024-01-22 06:00:00,15.66944694,0.0003488,70.0001,109.8629,273.3451,90.5451,-0.0092886,-0.00902704,0.0,0 STARLINK-6339,1 56771U 23078E   24022.25001157 -.00902704  00000-0 -92886-2 0  9996,2 56771  70.0001 109.8629 0003488 273.3451  90.5451 15.66944694 37344,6745.789,91.899,370.007,365.301,0.0
56771.0,STARLINK-6339,PAYLOAD,2024-01-22 08:00:01,15.66800308,0.0003371,70.0003,109.6295,275.6586,198.1423,-0.0097208,-0.00935912,0.0,0 STARLINK-6339,1 56771U 23078E   24022.33334491 -.00935912  00000-0 -97208-2 0  9995,2 56771  70.0003 109.6295 0003371 275.6586 198.1423 15.66800308  5980,6746.203,91.907,370.342,365.794,0.0
56771.0,STARLINK-6339,PAYLOAD,2024-01-22 22:00:00,15.65652449,0.0003459,69.9998,107.9985,277.8538,243.9874,-0.010328,-0.0094815,0.0,0 STARLINK-6339,1 56771U 23078E   24022.91667824 -.00948150  00000-0 -10328-1 0  9993,2 56771  69.9998 107.9985 0003459 277.8538 243.9874 15.65652449 37440,6749.5,91.974,373.7,369.03,0.0
56771.0,STARLINK-6339,PAYLOAD,2024-01-23 08:00:01,15.64855172,0.000357,70.0,106.8354,273.4412,75.5163,-0.010764,-0.00956339,0.0,0 STARLINK-6339,1 56771U 23078E   24023.33334491 -.00956339  00000-0 -10764-1 0  9993,2 56771  70.0000 106.8354 0003570 273.4412  75.5163 15.64855172  5994,6751.792,92.021,376.068,371.247,0.0
